[{"OBJECT_NAME":"FENGYUN 1C DEB","OBJECT_ID":"1999-025SW","EPOCH":"2026-03-04T02:07:45.803712","MEAN_MOTION":14.53642398,"ECCENTRICITY":0.00150035,"INCLINATION":99.0172,"RA_OF_ASC_NODE":355.8679,"ARG_OF_PERICENTER":144.8209,"MEAN_ANOMALY":215.3978,"EPHEMERIS_TYPE":0,"CLASSIFICATION_TYPE":"U","NORAD_CAT_ID":30141,"ELEMENT_SET_NO":999,"REV_AT_EPOCH":99425,"BSTAR":0.003452252,"MEAN_MOTION_DOT":0.00014441,"MEAN_MOTION_DDOT":0},{"OBJECT_NAME":"FENGYUN 1C DEB","OBJECT_ID":"1999-025SX","EPOCH":"2026-03-04T04:31:39.851616","MEAN_MOTION":14.11090394,"ECCENTRICITY":0.01021774,"INCLINATION":99.1198,"RA_OF_ASC_NODE":145.2318,"ARG_OF_PERICENTER":82.1935,"MEAN_ANOMALY":279.0821,"EPHEMERIS_TYPE":0,"CLASSIFICATION_TYPE":"U","NORAD_CAT_ID":30142,"ELEMENT_SET_NO":999,"REV_AT_EPOCH":97447,"BSTAR":0.0017406467,"MEAN_MOTION_DOT":3.246e-5,"MEAN_MOTION_DDOT":0},{"OBJECT_NAME":"FENGYUN 1C DEB","OBJECT_ID":"1999-025SY","EPOCH":"2026-03-04T11:03:24.449760","MEAN_MOTION":14.02933318,"ECCENTRICITY":0.01026571,"INCLINATION":98.7388,"RA_OF_ASC_NODE":248.4754,"ARG_OF_PERICENTER":62.4973,"MEAN_ANOMALY":328.1031,"EPHEMERIS_TYPE":0,"CLASSIFICATION_TYPE":"U","NORAD_CAT_ID":30143,"ELEMENT_SET_NO":999,"REV_AT_EPOCH":97365,"BSTAR":0.0012062912,"MEAN_MOTION_DOT":1.919e-5,"MEAN_MOTION_DDOT":0},{"OBJECT_NAME":"FENGYUN 1C DEB","OBJECT_ID":"1999-025SZ","EPOCH":"2026-03-04T12:47:34.534176","MEAN_MOTION":13.91934345,"ECCENTRICITY":0.0127332,"INCLINATION":99.0173,"RA_OF_ASC_NODE":59.0286,"ARG_OF_PERICENTER":67.809,"MEAN_ANOMALY":56.5559,"EPHEMERIS_TYPE":0,"CLASSIFICATION_TYPE":"U","NORAD_CAT_ID":30144,"ELEMENT_SET_NO":999,"REV_AT_EPOCH":96978,"BSTAR":0.0006235,"MEAN_MOTION_DOT":8.07e-6,"MEAN_MOTION_DDOT":0},{"OBJECT_NAME":"FENGYUN 1C DEB","OBJECT_ID":"1999-025TA","EPOCH":"2026-03-04T06:04:59.778624","MEAN_MOTION":14.14943809,"ECCENTRICITY":0.00882285,"INCLINATION":99.2671,"RA_OF_ASC_NODE":180.9054,"ARG_OF_PERICENTER":276.0337,"MEAN_ANOMALY":114.1577,"EPHEMERIS_TYPE":0,"CLASSIFICATION_TYPE":"U","NORAD_CAT_ID":30145,"ELEMENT_SET_NO":999,"REV_AT_EPOCH":97348,"BSTAR":0.0038836051,"MEAN_MOTION_DOT":7.756e-5,"MEAN_MOTION_DDOT":0},{"OBJECT_NAME":"FENGYUN 1C DEB","OBJECT_ID":"1999-025TB","EPOCH":"2026-03-03T08:53:39.943680","MEAN_MOTION":13.86732188,"ECCENTRICITY":0.01771908,"INCLINATION":98.028,"RA_OF_ASC_NODE":215.6239,"ARG_OF_PERICENTER":258.4081,"MEAN_ANOMALY":129.4273,"EPHEMERIS_TYPE":0,"CLASSIFICATION_TYPE":"U","NORAD_CAT_ID":30146,"ELEMENT_SET_NO":999,"REV_AT_EPOCH":96535,"BSTAR":0.00079680538,"MEAN_MOTION_DOT":1.014e-5,"MEAN_MOTION_DDOT":0},{"OBJECT_NAME":"FENGYUN 1C DEB","OBJECT_ID":"1999-025TD","EPOCH":"2026-03-04T09:43:01.726176","MEAN_MOTION":13.88658821,"ECCENTRICITY":0.01330119,"INCLINATION":99.5528,"RA_OF_ASC_NODE":219.6638,"ARG_OF_PERICENTER":339.2146,"MEAN_ANOMALY":46.7554,"EPHEMERIS_TYPE":0,"CLASSIFICATION_TYPE":"U","NORAD_CAT_ID":30148,"ELEMENT_SET_NO":999,"REV_AT_EPOCH":96650,"BSTAR":0.00074259539,"MEAN_MOTION_DOT":9.12e-6,"MEAN_MOTION_DDOT":0},{"OBJECT_NAME":"FENGYUN 1C DEB","OBJECT_ID":"1999-025TF","EPOCH":"2026-03-04T19:21:57.792096","MEAN_MOTION":13.86740924,"ECCENTRICITY":0.0148063,"INCLINATION":99.0008,"RA_OF_ASC_NODE":201.7031,"ARG_OF_PERICENTER":114.4859,"MEAN_ANOMALY":48.2207,"EPHEMERIS_TYPE":0,"CLASSIFICATION_TYPE":"U","NORAD_CAT_ID":30150,"ELEMENT_SET_NO":999,"REV_AT_EPOCH":96595,"BSTAR":0.00064302,"MEAN_MOTION_DOT":7.76e-6,"MEAN_MOTION_DDOT":0},{"OBJECT_NAME":"FENGYUN 1C DEB","OBJECT_ID":"1999-025TG","EPOCH":"2026-03-04T00:08:16.303200","MEAN_MOTION":13.84629453,"ECCENTRICITY":0.0164396,"INCLINATION":99.0634,"RA_OF_ASC_NODE":73.1935,"ARG_OF_PERICENTER":60.5193,"MEAN_ANOMALY":326.8467,"EPHEMERIS_TYPE":0,"CLASSIFICATION_TYPE":"U","NORAD_CAT_ID":30151,"ELEMENT_SET_NO":999,"REV_AT_EPOCH":96370,"BSTAR":0.0012536,"MEAN_MOTION_DOT":1.523e-5,"MEAN_MOTION_DDOT":0},{"OBJECT_NAME":"FENGYUN 1C DEB","OBJECT_ID":"1999-025TH","EPOCH":"2026-03-04T13:00:02.389248","MEAN_MOTION":13.97237416,"ECCENTRICITY":0.0159873,"INCLINATION":99.0839,"RA_OF_ASC_NODE":285.3379,"ARG_OF_PERICENTER":222.0438,"MEAN_ANOMALY":136.8365,"EPHEMERIS_TYPE":0,"CLASSIFICATION_TYPE":"U","NORAD_CAT_ID":30152,"ELEMENT_SET_NO":999,"REV_AT_EPOCH":96520,"BSTAR":0.0023059,"MEAN_MOTION_DOT":3.555e-5,"MEAN_MOTION_DDOT":0},{"OBJECT_NAME":"FENGYUN 1C DEB","OBJECT_ID":"1999-025TJ","EPOCH":"2026-03-04T11:35:00.494304","MEAN_MOTION":13.78997152,"ECCENTRICITY":0.02001993,"INCLINATION":100.4727,"RA_OF_ASC_NODE":67.3606,"ARG_OF_PERICENTER":157.6828,"MEAN_ANOMALY":355.3953,"EPHEMERIS_TYPE":0,"CLASSIFICATION_TYPE":"U","NORAD_CAT_ID":30153,"ELEMENT_SET_NO":999,"REV_AT_EPOCH":95901,"BSTAR":0.00092584182,"MEAN_MOTION_DOT":1.046e-5,"MEAN_MOTION_DDOT":0},{"OBJECT_NAME":"FENGYUN 1C DEB","OBJECT_ID":"1999-025TK","EPOCH":"2026-03-04T01:18:55.786176","MEAN_MOTION":13.86316824,"ECCENTRICITY":0.01786971,"INCLINATION":98.4422,"RA_OF_ASC_NODE":101.9619,"ARG_OF_PERICENTER":335.8099,"MEAN_ANOMALY":52.3505,"EPHEMERIS_TYPE":0,"CLASSIFICATION_TYPE":"U","NORAD_CAT_ID":30154,"ELEMENT_SET_NO":999,"REV_AT_EPOCH":96111,"BSTAR":0.0015298972,"MEAN_MOTION_DOT":1.967e-5,"MEAN_MOTION_DDOT":0},{"OBJECT_NAME":"FENGYUN 1C DEB","OBJECT_ID":"1999-025TL","EPOCH":"2026-03-04T15:31:25.844160","MEAN_MOTION":13.7435315,"ECCENTRICITY":0.0246822,"INCLINATION":99.7478,"RA_OF_ASC_NODE":143.8835,"ARG_OF_PERICENTER":134.1128,"MEAN_ANOMALY":228.0619,"EPHEMERIS_TYPE":0,"CLASSIFICATION_TYPE":"U","NORAD_CAT_ID":30155,"ELEMENT_SET_NO":999,"REV_AT_EPOCH":94989,"BSTAR":0.0044956,"MEAN_MOTION_DOT":5.251e-5,"MEAN_MOTION_DDOT":0},{"OBJECT_NAME":"FENGYUN 1C DEB","OBJECT_ID":"1999-025TM","EPOCH":"2026-03-04T20:17:47.927040","MEAN_MOTION":13.81111772,"ECCENTRICITY":0.0201191,"INCLINATION":98.9245,"RA_OF_ASC_NODE":31.3418,"ARG_OF_PERICENTER":42.0411,"MEAN_ANOMALY":348.4291,"EPHEMERIS_TYPE":0,"CLASSIFICATION_TYPE":"U","NORAD_CAT_ID":30156,"ELEMENT_SET_NO":999,"REV_AT_EPOCH":95824,"BSTAR":0.0024811,"MEAN_MOTION_DOT":3.021e-5,"MEAN_MOTION_DDOT":0},{"OBJECT_NAME":"FENGYUN 1C DEB","OBJECT_ID":"1999-025TN","EPOCH":"2026-03-04T12:15:51.055776","MEAN_MOTION":14.46440012,"ECCENTRICITY":0.00337372,"INCLINATION":98.7115,"RA_OF_ASC_NODE":167.7471,"ARG_OF_PERICENTER":305.4017,"MEAN_ANOMALY":120.6111,"EPHEMERIS_TYPE":0,"CLASSIFICATION_TYPE":"U","NORAD_CAT_ID":30157,"ELEMENT_SET_NO":999,"REV_AT_EPOCH":99254,"BSTAR":0.0030017725,"MEAN_MOTION_DOT":0.00010836,"MEAN_MOTION_DDOT":0},{"OBJECT_NAME":"FENGYUN 1C DEB","OBJECT_ID":"1999-025TR","EPOCH":"2026-03-03T19:46:19.407936","MEAN_MOTION":13.43080884,"ECCENTRICITY":0.0342274,"INCLINATION":98.8936,"RA_OF_ASC_NODE":6.9865,"ARG_OF_PERICENTER":283.8393,"MEAN_ANOMALY":130.6735,"EPHEMERIS_TYPE":0,"CLASSIFICATION_TYPE":"U","NORAD_CAT_ID":30160,"ELEMENT_SET_NO":999,"REV_AT_EPOCH":93502,"BSTAR":0.00089937,"MEAN_MOTION_DOT":6.88e-6,"MEAN_MOTION_DDOT":0}]
