FENGYUN 1C DEB          
1 30141U 99025SW  26063.08872458  .00014441  00000+0  34523-2 0  9995
2 30141  99.0172 355.8679 0015003 144.8209 215.3978 14.53642398994258
FENGYUN 1C DEB          
1 30142U 99025SX  26063.18865569  .00003246  00000+0  17406-2 0  9994
2 30142  99.1198 145.2318 0102177  82.1935 279.0821 14.11090394974471
FENGYUN 1C DEB          
1 30143U 99025SY  26063.46069965  .00001919  00000+0  12063-2 0  9991
2 30143  98.7388 248.4754 0102657  62.4973 328.1031 14.02933318973654
FENGYUN 1C DEB          
1 30144U 99025SZ  26063.53303859  .00000807  00000+0  62350-3 0  9993
2 30144  99.0173  59.0286 0127332  67.8090  56.5559 13.91934345969787
FENGYUN 1C DEB          
1 30145U 99025TA  26063.25346966  .00007756  00000+0  38836-2 0  9990
2 30145  99.2671 180.9054 0088228 276.0337 114.1577 14.14943809973482
FENGYUN 1C DEB          
1 30146U 99025TB  26062.37060120  .00001014  00000+0  79681-3 0  9993
2 30146  98.0280 215.6239 0177190 258.4081 129.4273 13.86732188965357
FENGYUN 1C DEB          
1 30148U 99025TD  26063.40488109  .00000912  00000+0  74260-3 0  9995
2 30148  99.5528 219.6638 0133011 339.2146  46.7554 13.88658821966505
FENGYUN 1C DEB          
1 30150U 99025TF  26063.80691889  .00000776  00000+0  64302-3 0  9997
2 30150  99.0008 201.7031 0148063 114.4859  48.2207 13.86740924965956
FENGYUN 1C DEB          
1 30151U 99025TG  26063.00574425  .00001523  00000+0  12536-2 0  9998
2 30151  99.0634  73.1935 0164396  60.5193 326.8467 13.84629453963700
FENGYUN 1C DEB          
1 30152U 99025TH  26063.54169432  .00003555  00000+0  23059-2 0  9995
2 30152  99.0839 285.3379 0159873 222.0438 136.8365 13.97237416965209
FENGYUN 1C DEB          
1 30153U 99025TJ  26063.48264461  .00001046  00000+0  92584-3 0  9990
2 30153 100.4727  67.3606 0200199 157.6828 355.3953 13.78997152959010
FENGYUN 1C DEB          
1 30154U 99025TK  26063.05481234  .00001967  00000+0  15299-2 0  9992
2 30154  98.4422 101.9619 0178697 335.8099  52.3505 13.86316824961116
FENGYUN 1C DEB          
1 30155U 99025TL  26063.64682690  .00005251  00000+0  44956-2 0  9999
2 30155  99.7478 143.8835 0246822 134.1128 228.0619 13.74353150949895
FENGYUN 1C DEB          
1 30156U 99025TM  26063.84569360  .00003021  00000+0  24811-2 0  9991
2 30156  98.9245  31.3418 0201191  42.0411 348.4291 13.81111772958241
FENGYUN 1C DEB          
1 30157U 99025TN  26063.51100759  .00010836  00000+0  30018-2 0  9997
2 30157  98.7115 167.7471 0033737 305.4017 120.6111 14.46440012992542
FENGYUN 1C DEB          
1 30160U 99025TR  26062.82383574  .00000688  00000+0  89937-3 0  9991
2 30160  98.8936   6.9865 0342274 283.8393 130.6735 13.43080884935020
